{
  "type": "FeatureCollection",
  "features": [
    {
      "type": "Feature",
      "properties": {
        "norad_id": 66646,
        "name": "CZ-2F R/B",
        "group": "last-30-days",
        "lat": 18.595997909154693,
        "lon": -144.37042354689055,
        "alt_km": 202.59131436851658,
        "timestamp": "2025-12-05T04:52:14.143407+00:00",
        "meta_object_name": "CZ-2F R/B",
        "meta_object_id": "2025-272B",
        "meta_epoch": "2025-11-26T11:17:54.506400",
        "meta_mean_motion": 16.01945612,
        "meta_eccentricity": 0.01210796,
        "meta_inclination": 41.4431,
        "meta_ra_of_asc_node": 114.9009,
        "meta_arg_of_pericenter": 133.7676,
        "meta_mean_anomaly": 227.3272,
        "meta_ephemeris_type": 0,
        "meta_classification_type": "U",
        "meta_norad_cat_id": 66646,
        "meta_element_set_no": 999,
        "meta_rev_at_epoch": 21,
        "meta_bstar": 0.00029319366,
        "meta_mean_motion_dot": 0.00449059,
        "meta_mean_motion_ddot": 7.567612e-06,
        "tle_line1": "1 66646U 25272B   25330.47076975  .00449059  75676-5  29319-3 0  9998",
        "tle_line2": "2 66646  41.4431 114.9009 0121079 133.7676 227.3272 16.01945612   217"
      },
      "geometry": {
        "type": "Point",
        "coordinates": [
          -144.37042354689055,
          18.595997909154693
        ]
      }
    },
    {
      "type": "Feature",
      "properties": {
        "norad_id": 66647,
        "name": "COSMOS 2597 (RODNIK-S 22)",
        "group": "last-30-days",
        "lat": -82.252814402468,
        "lon": -173.29598494080662,
        "alt_km": 1500.7510197294323,
        "timestamp": "2025-12-05T04:52:14.143418+00:00",
        "meta_object_name": "COSMOS 2597 (RODNIK-S 22)",
        "meta_object_id": "2025-273A",
        "meta_epoch": "2025-12-04T17:45:49.910400",
        "meta_mean_motion": 12.41951087,
        "meta_eccentricity": 0.0008097,
        "meta_inclination": 82.4982,
        "meta_ra_of_asc_node": 291.4172,
        "meta_arg_of_pericenter": 307.9875,
        "meta_mean_anomaly": 52.0472,
        "meta_ephemeris_type": 0,
        "meta_classification_type": "U",
        "meta_norad_cat_id": 66647,
        "meta_element_set_no": 999,
        "meta_rev_at_epoch": 114,
        "meta_bstar": 3.9901e-06,
        "meta_mean_motion_dot": 1e-07,
        "meta_mean_motion_ddot": 0,
        "tle_line1": "1 66647U 25273A   25338.74016100  .00000010  00000+0  39901-5 0  9995",
        "tle_line2": "2 66647  82.4982 291.4172 0008097 307.9875  52.0472 12.41951087  1147"
      },
      "geometry": {
        "type": "Point",
        "coordinates": [
          -173.29598494080662,
          -82.252814402468
        ]
      }
    },
    {
      "type": "Feature",
      "properties": {
        "norad_id": 66648,
        "name": "COSMOS 2598 (RODNIK-S 23)",
        "group": "last-30-days",
        "lat": -78.70979033032756,
        "lon": -110.13303269194014,
        "alt_km": 1498.2488404183132,
        "timestamp": "2025-12-05T04:52:14.143427+00:00",
        "meta_object_name": "COSMOS 2598 (RODNIK-S 23)",
        "meta_object_id": "2025-273B",
        "meta_epoch": "2025-12-04T06:06:47.884896",
        "meta_mean_motion": 12.42253119,
        "meta_eccentricity": 0.0008196,
        "meta_inclination": 82.5023,
        "meta_ra_of_asc_node": 291.7242,
        "meta_arg_of_pericenter": 297.6387,
        "meta_mean_anomaly": 62.386,
        "meta_ephemeris_type": 0,
        "meta_classification_type": "U",
        "meta_norad_cat_id": 66648,
        "meta_element_set_no": 999,
        "meta_rev_at_epoch": 108,
        "meta_bstar": -2.072e-05,
        "meta_mean_motion_dot": 7e-08,
        "meta_mean_motion_ddot": 0,
        "tle_line1": "1 66648U 25273B   25338.25472089  .00000007  00000+0 -20720-4 0  9999",
        "tle_line2": "2 66648  82.5023 291.7242 0008196 297.6387  62.3860 12.42253119  1089"
      },
      "geometry": {
        "type": "Point",
        "coordinates": [
          -110.13303269194014,
          -78.70979033032756
        ]
      }
    },
    {
      "type": "Feature",
      "properties": {
        "norad_id": 66649,
        "name": "COSMOS 2599 (RODNIK-S 24)",
        "group": "last-30-days",
        "lat": -76.27830860983391,
        "lon": 143.77760518321713,
        "alt_km": 1503.4611197262584,
        "timestamp": "2025-12-05T04:52:14.143437+00:00",
        "meta_object_name": "COSMOS 2599 (RODNIK-S 24)",
        "meta_object_id": "2025-273C",
        "meta_epoch": "2025-12-04T17:48:46.644192",
        "meta_mean_motion": 12.41671796,
        "meta_eccentricity": 0.0008322,
        "meta_inclination": 82.5023,
        "meta_ra_of_asc_node": 291.4278,
        "meta_arg_of_pericenter": 318.2866,
        "meta_mean_anomaly": 41.7577,
        "meta_ephemeris_type": 0,
        "meta_classification_type": "U",
        "meta_norad_cat_id": 66649,
        "meta_element_set_no": 999,
        "meta_rev_at_epoch": 114,
        "meta_bstar": -3.543e-05,
        "meta_mean_motion_dot": 5e-08,
        "meta_mean_motion_ddot": 0,
        "tle_line1": "1 66649U 25273C   25338.74220653  .00000005  00000+0 -35430-4 0  9994",
        "tle_line2": "2 66649  82.5023 291.4278 0008322 318.2866  41.7577 12.41671796  1146"
      },
      "geometry": {
        "type": "Point",
        "coordinates": [
          143.77760518321713,
          -76.27830860983391
        ]
      }
    },
    {
      "type": "Feature",
      "properties": {
        "norad_id": 66650,
        "name": "2025-274A",
        "group": "last-30-days",
        "lat": 14.875626057715271,
        "lon": 88.59926336779384,
        "alt_km": 596.9957704758663,
        "timestamp": "2025-12-05T04:52:14.143447+00:00",
        "meta_object_name": "2025-274A",
        "meta_object_id": "2025-274A",
        "meta_epoch": "2025-12-04T08:48:46.861920",
        "meta_mean_motion": 14.91617165,
        "meta_eccentricity": 0.0010409,
        "meta_inclination": 97.7386,
        "meta_ra_of_asc_node": 265.7091,
        "meta_arg_of_pericenter": 283.9382,
        "meta_mean_anomaly": 76.0679,
        "meta_ephemeris_type": 0,
        "meta_classification_type": "U",
        "meta_norad_cat_id": 66650,
        "meta_element_set_no": 999,
        "meta_rev_at_epoch": 115,
        "meta_bstar": 0.000378,
        "meta_mean_motion_dot": 3.743e-05,
        "meta_mean_motion_ddot": 0,
        "tle_line1": "1 66650U 25274A   25338.36720905  .00003743  00000+0  37800-3 0  9993",
        "tle_line2": "2 66650  97.7386 265.7091 0010409 283.9382  76.0679 14.91617165  1157"
      },
      "geometry": {
        "type": "Point",
        "coordinates": [
          88.59926336779384,
          14.875626057715271
        ]
      }
    },
    {
      "type": "Feature",
      "properties": {
        "norad_id": 66651,
        "name": "2025-274B",
        "group": "last-30-days",
        "lat": 12.965252887235243,
        "lon": 88.32347863324556,
        "alt_km": 596.7964985547078,
        "timestamp": "2025-12-05T04:52:14.143456+00:00",
        "meta_object_name": "2025-274B",
        "meta_object_id": "2025-274B",
        "meta_epoch": "2025-12-04T16:51:17.913888",
        "meta_mean_motion": 14.91703911,
        "meta_eccentricity": 0.0010711,
        "meta_inclination": 97.7383,
        "meta_ra_of_asc_node": 266.0381,
        "meta_arg_of_pericenter": 282.1587,
        "meta_mean_anomaly": 77.8432,
        "meta_ephemeris_type": 0,
        "meta_classification_type": "U",
        "meta_norad_cat_id": 66651,
        "meta_element_set_no": 999,
        "meta_rev_at_epoch": 120,
        "meta_bstar": 0.00082854,
        "meta_mean_motion_dot": 8.295e-05,
        "meta_mean_motion_ddot": 0,
        "tle_line1": "1 66651U 25274B   25338.70229067  .00008295  00000+0  82854-3 0  9991",
        "tle_line2": "2 66651  97.7383 266.0381 0010711 282.1587  77.8432 14.91703911  1202"
      },
      "geometry": {
        "type": "Point",
        "coordinates": [
          88.32347863324556,
          12.965252887235243
        ]
      }
    },
    {
      "type": "Feature",
      "properties": {
        "norad_id": 66652,
        "name": "2025-274C",
        "group": "last-30-days",
        "lat": 8.481642882443762,
        "lon": 87.6941388413654,
        "alt_km": 597.2242833202026,
        "timestamp": "2025-12-05T04:52:14.143466+00:00",
        "meta_object_name": "2025-274C",
        "meta_object_id": "2025-274C",
        "meta_epoch": "2025-12-04T16:50:09.153312",
        "meta_mean_motion": 14.91839256,
        "meta_eccentricity": 0.0010455,
        "meta_inclination": 97.7387,
        "meta_ra_of_asc_node": 266.0399,
        "meta_arg_of_pericenter": 288.8181,
        "meta_mean_anomaly": 71.1904,
        "meta_ephemeris_type": 0,
        "meta_classification_type": "U",
        "meta_norad_cat_id": 66652,
        "meta_element_set_no": 999,
        "meta_rev_at_epoch": 120,
        "meta_bstar": 0.00053399,
        "meta_mean_motion_dot": 5.342e-05,
        "meta_mean_motion_ddot": 0,
        "tle_line1": "1 66652U 25274C   25338.70149483  .00005342  00000+0  53399-3 0  9997",
        "tle_line2": "2 66652  97.7387 266.0399 0010455 288.8181  71.1904 14.91839256  1207"
      },
      "geometry": {
        "type": "Point",
        "coordinates": [
          87.6941388413654,
          8.481642882443762
        ]
      }
    }
  ]
}